{
  "type": "FeatureCollection",
  "features": [
    {
      "type": "Feature",
      "properties": {
        "norad_id": 41877,
        "name": "RESOURCESAT-2A",
        "group": "resource",
        "lat": 81.14095580592767,
        "lon": -31.55058284568112,
        "alt_km": 813.2815892906738,
        "timestamp": "2025-12-06T22:38:42.392419+00:00",
        "meta_object_name": "RESOURCESAT-2A",
        "meta_object_id": "2016-074A",
        "meta_epoch": "2025-12-06T15:28:19.262496",
        "meta_mean_motion": 14.21595672,
        "meta_eccentricity": 0.00011208,
        "meta_inclination": 98.7766,
        "meta_ra_of_asc_node": 50.536,
        "meta_arg_of_pericenter": 284.1853,
        "meta_mean_anomaly": 75.92,
        "meta_ephemeris_type": 0,
        "meta_classification_type": "U",
        "meta_norad_cat_id": 41877,
        "meta_element_set_no": 999,
        "meta_rev_at_epoch": 46694,
        "meta_bstar": 0.00018238142,
        "meta_mean_motion_dot": 3.55e-06,
        "meta_mean_motion_ddot": 0,
        "tle_line1": "1 41877U 16074A   25340.64466739  .00000355  00000+0  18238-3 0  9991",
        "tle_line2": "2 41877  98.7766  50.5360 0001120 284.1853  75.9200 14.21595672466940"
      },
      "geometry": {
        "type": "Point",
        "coordinates": [
          -31.55058284568112,
          81.14095580592767
        ]
      }
    },
    {
      "type": "Feature",
      "properties": {
        "norad_id": 41948,
        "name": "CARTOSAT-2D",
        "group": "resource",
        "lat": -41.49900121775452,
        "lon": -148.10905001443842,
        "alt_km": 512.8141647706398,
        "timestamp": "2025-12-06T22:38:42.392429+00:00",
        "meta_object_name": "CARTOSAT-2D",
        "meta_object_id": "2017-008A",
        "meta_epoch": "2025-12-06T15:20:54.234240",
        "meta_mean_motion": 15.19167369,
        "meta_eccentricity": 0.00041239,
        "meta_inclination": 97.4397,
        "meta_ra_of_asc_node": 38.2301,
        "meta_arg_of_pericenter": 182.6782,
        "meta_mean_anomaly": 177.4432,
        "meta_ephemeris_type": 0,
        "meta_classification_type": "U",
        "meta_norad_cat_id": 41948,
        "meta_element_set_no": 999,
        "meta_rev_at_epoch": 48834,
        "meta_bstar": 0.00043939106,
        "meta_mean_motion_dot": 9.177e-05,
        "meta_mean_motion_ddot": 0,
        "tle_line1": "1 41948U 17008A   25340.63951660  .00009177  00000+0  43939-3 0  9996",
        "tle_line2": "2 41948  97.4397  38.2301 0004123 182.6782 177.4432 15.19167369488341"
      },
      "geometry": {
        "type": "Point",
        "coordinates": [
          -148.10905001443842,
          -41.49900121775452
        ]
      }
    },
    {
      "type": "Feature",
      "properties": {
        "norad_id": 42063,
        "name": "SENTINEL-2B",
        "group": "resource",
        "lat": -44.891299961329004,
        "lon": -135.17177295117074,
        "alt_km": 796.208299032729,
        "timestamp": "2025-12-06T22:38:42.392439+00:00",
        "meta_object_name": "SENTINEL-2B",
        "meta_object_id": "2017-013A",
        "meta_epoch": "2025-12-06T14:52:53.025888",
        "meta_mean_motion": 14.3081242,
        "meta_eccentricity": 0.0001131,
        "meta_inclination": 98.5725,
        "meta_ra_of_asc_node": 53.1519,
        "meta_arg_of_pericenter": 97.8714,
        "meta_mean_anomaly": 262.2598,
        "meta_ephemeris_type": 0,
        "meta_classification_type": "U",
        "meta_norad_cat_id": 42063,
        "meta_element_set_no": 999,
        "meta_rev_at_epoch": 45710,
        "meta_bstar": 0.00014259955,
        "meta_mean_motion_dot": 3.3e-06,
        "meta_mean_motion_ddot": 0,
        "tle_line1": "1 42063U 17013A   25340.62005817  .00000330  00000+0  14260-3 0  9991",
        "tle_line2": "2 42063  98.5725  53.1519 0001131  97.8714 262.2598 14.30812420457105"
      },
      "geometry": {
        "type": "Point",
        "coordinates": [
          -135.17177295117074,
          -44.891299961329004
        ]
      }
    },
    {
      "type": "Feature",
      "properties": {
        "norad_id": 42767,
        "name": "CARTOSAT-2E",
        "group": "resource",
        "lat": 47.52078559968026,
        "lon": -133.17089935726875,
        "alt_km": 505.14773521842835,
        "timestamp": "2025-12-06T22:38:42.392449+00:00",
        "meta_object_name": "CARTOSAT-2E",
        "meta_object_id": "2017-036C",
        "meta_epoch": "2025-12-06T15:44:36.297024",
        "meta_mean_motion": 15.19230274,
        "meta_eccentricity": 0.00023744,
        "meta_inclination": 97.4563,
        "meta_ra_of_asc_node": 38.322,
        "meta_arg_of_pericenter": 268.2438,
        "meta_mean_anomaly": 91.8525,
        "meta_ephemeris_type": 0,
        "meta_classification_type": "U",
        "meta_norad_cat_id": 42767,
        "meta_element_set_no": 999,
        "meta_rev_at_epoch": 46891,
        "meta_bstar": 0.00043878497,
        "meta_mean_motion_dot": 9.18e-05,
        "meta_mean_motion_ddot": 0,
        "tle_line1": "1 42767U 17036C   25340.65597566  .00009180  00000+0  43878-3 0  9996",
        "tle_line2": "2 42767  97.4563  38.3220 0002374 268.2438  91.8525 15.19230274468911"
      },
      "geometry": {
        "type": "Point",
        "coordinates": [
          -133.17089935726875,
          47.52078559968026
        ]
      }
    },
    {
      "type": "Feature",
      "properties": {
        "norad_id": 42920,
        "name": "FORMOSAT-5",
        "group": "resource",
        "lat": 12.811998932925995,
        "lon": -122.73272987861141,
        "alt_km": 729.6602405660042,
        "timestamp": "2025-12-06T22:38:42.392460+00:00",
        "meta_object_name": "FORMOSAT-5",
        "meta_object_id": "2017-049A",
        "meta_epoch": "2025-12-06T15:15:27.132480",
        "meta_mean_motion": 14.50999867,
        "meta_eccentricity": 0.00101355,
        "meta_inclination": 98.2459,
        "meta_ra_of_asc_node": 55.0757,
        "meta_arg_of_pericenter": 316.0989,
        "meta_mean_anomaly": 43.94,
        "meta_ephemeris_type": 0,
        "meta_classification_type": "U",
        "meta_norad_cat_id": 42920,
        "meta_element_set_no": 999,
        "meta_rev_at_epoch": 43875,
        "meta_bstar": 0.00014431343,
        "meta_mean_motion_dot": 5.27e-06,
        "meta_mean_motion_ddot": 0,
        "tle_line1": "1 42920U 17049A   25340.63573070  .00000527  00000+0  14431-3 0  9992",
        "tle_line2": "2 42920  98.2459  55.0757 0010135 316.0989  43.9400 14.50999867438756"
      },
      "geometry": {
        "type": "Point",
        "coordinates": [
          -122.73272987861141,
          12.811998932925995
        ]
      }
    },
    {
      "type": "Feature",
      "properties": {
        "norad_id": 42969,
        "name": "SENTINEL-5P",
        "group": "resource",
        "lat": 40.94489456979725,
        "lon": 107.28298944134627,
        "alt_km": 823.2775724639532,
        "timestamp": "2025-12-06T22:38:42.392471+00:00",
        "meta_object_name": "SENTINEL-5P",
        "meta_object_id": "2017-064A",
        "meta_epoch": "2025-12-06T13:32:13.730784",
        "meta_mean_motion": 14.1951503,
        "meta_eccentricity": 9.523e-05,
        "meta_inclination": 98.7776,
        "meta_ra_of_asc_node": 279.2033,
        "meta_arg_of_pericenter": 86.5858,
        "meta_mean_anomaly": 273.5427,
        "meta_ephemeris_type": 0,
        "meta_classification_type": "U",
        "meta_norad_cat_id": 42969,
        "meta_element_set_no": 999,
        "meta_rev_at_epoch": 42223,
        "meta_bstar": 0.00010652491,
        "meta_mean_motion_dot": 1.8e-06,
        "meta_mean_motion_ddot": 0,
        "tle_line1": "1 42969U 17064A   25340.56404781  .00000180  00000+0  10652-3 0  9992",
        "tle_line2": "2 42969  98.7776 279.2033 0000952  86.5858 273.5427 14.19515030422230"
      },
      "geometry": {
        "type": "Point",
        "coordinates": [
          107.28298944134627,
          40.94489456979725
        ]
      }
    },
    {
      "type": "Feature",
      "properties": {
        "norad_id": 42987,
        "name": "SKYSAT-C11",
        "group": "resource",
        "lat": 67.87279864841904,
        "lon": -43.02682680430634,
        "alt_km": 418.01814451583414,
        "timestamp": "2025-12-06T22:38:42.392481+00:00",
        "meta_object_name": "SKYSAT-C11",
        "meta_object_id": "2017-068A",
        "meta_epoch": "2025-12-06T14:24:21.705408",
        "meta_mean_motion": 15.47070352,
        "meta_eccentricity": 9.354e-05,
        "meta_inclination": 97.4144,
        "meta_ra_of_asc_node": 117.9423,
        "meta_arg_of_pericenter": 109.566,
        "meta_mean_anomaly": 250.5691,
        "meta_ephemeris_type": 0,
        "meta_classification_type": "U",
        "meta_norad_cat_id": 42987,
        "meta_element_set_no": 999,
        "meta_rev_at_epoch": 45336,
        "meta_bstar": 0.00067979962,
        "meta_mean_motion_dot": 0.00034413,
        "meta_mean_motion_ddot": 0,
        "tle_line1": "1 42987U 17068A   25340.60025122  .00034413  00000+0  67980-3 0  9991",
        "tle_line2": "2 42987  97.4144 117.9423 0000935 109.5660 250.5691 15.47070352453365"
      },
      "geometry": {
        "type": "Point",
        "coordinates": [
          -43.02682680430634,
          67.87279864841904
        ]
      }
    }
  ]
}